KUIPER-00095            
1 65134U 25171C   25337.50003471 -.01510611  00000+0 -11351+0 0  9991
2 65134  51.8852 217.6288 0004887 160.5483 130.0693 15.05644230  4420
KUIPER-00096            
1 65135U 25171D   25337.50003471  .00014902  00000+0  19786-2 0  9994
2 65135  51.8980 223.4374 0012337 190.1139  92.1406 14.79905638  2105
KUIPER-00097            
1 65136U 25171E   25337.43939840  .00006448  00000+0  87528-3 0  9991
2 65136  51.9008 226.2640 0010868 184.9286 175.1571 14.79847226 18599
KUIPER-00098            
1 65137U 25171F   25337.10423497  .00006529  00000+0  88394-3 0  9994
2 65137  51.8997 230.1873 0007955 171.4587 188.6512 14.79954209 17869
KUIPER-00099            
1 65138U 25171G   25337.50003471 -.01232128  00000+0 -11132+0 0  9996
2 65138  51.8948 219.2560 0005616 210.9927 109.3189 14.98044336  5809
KUIPER-00100            
1 65139U 25171H   25337.50003471 -.01012884  00000+0 -74023-1 0  9992
2 65139  51.8883 217.6845 0002447 216.6793 136.6819 15.05949543  5412
KUIPER-00102            
1 65140U 25171J   25337.50003471 -.01509470  00000+0 -13903+0 0  9994
2 65140  51.8936 219.1156 0012242 180.8065  93.0069 14.97350695  4891
KUIPER-00103            
1 65141U 25171K   25337.12992987  .00007414  00000+0  99948-3 0  9997
2 65141  51.8992 237.5668 0006343 167.7991 192.3126 14.79970307 18411
