<?xml version="1.0" encoding="UTF-8"?>
<ndm xmlns:xsi="http://www.w3.org/2001/XMLSchema-instance" xsi:noNamespaceSchemaLocation="https://sanaregistry.org/r/ndmxml_unqualified/ndmxml-2.0.0-master-2.0.xsd">
<omm id="CCSDS_OMM_VERS" version="2.0">
<header><CREATION_DATE/><ORIGINATOR/></header><body><segment><metadata><OBJECT_NAME>KUIPER-00095</OBJECT_NAME><OBJECT_ID>2025-171C</OBJECT_ID><CENTER_NAME>EARTH</CENTER_NAME><REF_FRAME>TEME</REF_FRAME><TIME_SYSTEM>UTC</TIME_SYSTEM><MEAN_ELEMENT_THEORY>SGP4</MEAN_ELEMENT_THEORY></metadata><data><meanElements><EPOCH>2025-12-03T12:00:02.998944</EPOCH><MEAN_MOTION>15.05644230</MEAN_MOTION><ECCENTRICITY>.0004887</ECCENTRICITY><INCLINATION>51.8852</INCLINATION><RA_OF_ASC_NODE>217.6288</RA_OF_ASC_NODE><ARG_OF_PERICENTER>160.5483</ARG_OF_PERICENTER><MEAN_ANOMALY>130.0693</MEAN_ANOMALY></meanElements><tleParameters><EPHEMERIS_TYPE>0</EPHEMERIS_TYPE><CLASSIFICATION_TYPE>U</CLASSIFICATION_TYPE><NORAD_CAT_ID>65134</NORAD_CAT_ID><ELEMENT_SET_NO>999</ELEMENT_SET_NO><REV_AT_EPOCH>442</REV_AT_EPOCH><BSTAR>-.11351E+0</BSTAR><MEAN_MOTION_DOT>-.1510611E-1</MEAN_MOTION_DOT><MEAN_MOTION_DDOT>0</MEAN_MOTION_DDOT></tleParameters></data></segment></body></omm>
<omm id="CCSDS_OMM_VERS" version="2.0">
<header><CREATION_DATE/><ORIGINATOR/></header><body><segment><metadata><OBJECT_NAME>KUIPER-00096</OBJECT_NAME><OBJECT_ID>2025-171D</OBJECT_ID><CENTER_NAME>EARTH</CENTER_NAME><REF_FRAME>TEME</REF_FRAME><TIME_SYSTEM>UTC</TIME_SYSTEM><MEAN_ELEMENT_THEORY>SGP4</MEAN_ELEMENT_THEORY></metadata><data><meanElements><EPOCH>2025-12-03T12:00:02.998944</EPOCH><MEAN_MOTION>14.79905638</MEAN_MOTION><ECCENTRICITY>.0012337</ECCENTRICITY><INCLINATION>51.8980</INCLINATION><RA_OF_ASC_NODE>223.4374</RA_OF_ASC_NODE><ARG_OF_PERICENTER>190.1139</ARG_OF_PERICENTER><MEAN_ANOMALY>92.1406</MEAN_ANOMALY></meanElements><tleParameters><EPHEMERIS_TYPE>0</EPHEMERIS_TYPE><CLASSIFICATION_TYPE>U</CLASSIFICATION_TYPE><NORAD_CAT_ID>65135</NORAD_CAT_ID><ELEMENT_SET_NO>999</ELEMENT_SET_NO><REV_AT_EPOCH>210</REV_AT_EPOCH><BSTAR>.19786E-2</BSTAR><MEAN_MOTION_DOT>.14902E-3</MEAN_MOTION_DOT><MEAN_MOTION_DDOT>0</MEAN_MOTION_DDOT></tleParameters></data></segment></body></omm>
<omm id="CCSDS_OMM_VERS" version="2.0">
<header><CREATION_DATE/><ORIGINATOR/></header><body><segment><metadata><OBJECT_NAME>KUIPER-00097</OBJECT_NAME><OBJECT_ID>2025-171E</OBJECT_ID><CENTER_NAME>EARTH</CENTER_NAME><REF_FRAME>TEME</REF_FRAME><TIME_SYSTEM>UTC</TIME_SYSTEM><MEAN_ELEMENT_THEORY>SGP4</MEAN_ELEMENT_THEORY></metadata><data><meanElements><EPOCH>2025-12-03T10:32:44.021760</EPOCH><MEAN_MOTION>14.79847226</MEAN_MOTION><ECCENTRICITY>.0010868</ECCENTRICITY><INCLINATION>51.9008</INCLINATION><RA_OF_ASC_NODE>226.2640</RA_OF_ASC_NODE><ARG_OF_PERICENTER>184.9286</ARG_OF_PERICENTER><MEAN_ANOMALY>175.1571</MEAN_ANOMALY></meanElements><tleParameters><EPHEMERIS_TYPE>0</EPHEMERIS_TYPE><CLASSIFICATION_TYPE>U</CLASSIFICATION_TYPE><NORAD_CAT_ID>65136</NORAD_CAT_ID><ELEMENT_SET_NO>999</ELEMENT_SET_NO><REV_AT_EPOCH>1859</REV_AT_EPOCH><BSTAR>.87528E-3</BSTAR><MEAN_MOTION_DOT>.6448E-4</MEAN_MOTION_DOT><MEAN_MOTION_DDOT>0</MEAN_MOTION_DDOT></tleParameters></data></segment></body></omm>
<omm id="CCSDS_OMM_VERS" version="2.0">
<header><CREATION_DATE/><ORIGINATOR/></header><body><segment><metadata><OBJECT_NAME>KUIPER-00098</OBJECT_NAME><OBJECT_ID>2025-171F</OBJECT_ID><CENTER_NAME>EARTH</CENTER_NAME><REF_FRAME>TEME</REF_FRAME><TIME_SYSTEM>UTC</TIME_SYSTEM><MEAN_ELEMENT_THEORY>SGP4</MEAN_ELEMENT_THEORY></metadata><data><meanElements><EPOCH>2025-12-03T02:30:05.901408</EPOCH><MEAN_MOTION>14.79954209</MEAN_MOTION><ECCENTRICITY>.00079554</ECCENTRICITY><INCLINATION>51.8997</INCLINATION><RA_OF_ASC_NODE>230.1873</RA_OF_ASC_NODE><ARG_OF_PERICENTER>171.4587</ARG_OF_PERICENTER><MEAN_ANOMALY>188.6512</MEAN_ANOMALY></meanElements><tleParameters><EPHEMERIS_TYPE>0</EPHEMERIS_TYPE><CLASSIFICATION_TYPE>U</CLASSIFICATION_TYPE><NORAD_CAT_ID>65137</NORAD_CAT_ID><ELEMENT_SET_NO>999</ELEMENT_SET_NO><REV_AT_EPOCH>1786</REV_AT_EPOCH><BSTAR>.88393506E-3</BSTAR><MEAN_MOTION_DOT>.6529E-4</MEAN_MOTION_DOT><MEAN_MOTION_DDOT>0</MEAN_MOTION_DDOT></tleParameters></data></segment></body></omm>
<omm id="CCSDS_OMM_VERS" version="2.0">
<header><CREATION_DATE/><ORIGINATOR/></header><body><segment><metadata><OBJECT_NAME>KUIPER-00099</OBJECT_NAME><OBJECT_ID>2025-171G</OBJECT_ID><CENTER_NAME>EARTH</CENTER_NAME><REF_FRAME>TEME</REF_FRAME><TIME_SYSTEM>UTC</TIME_SYSTEM><MEAN_ELEMENT_THEORY>SGP4</MEAN_ELEMENT_THEORY></metadata><data><meanElements><EPOCH>2025-12-03T12:00:02.998944</EPOCH><MEAN_MOTION>14.98044336</MEAN_MOTION><ECCENTRICITY>.0005616</ECCENTRICITY><INCLINATION>51.8948</INCLINATION><RA_OF_ASC_NODE>219.2560</RA_OF_ASC_NODE><ARG_OF_PERICENTER>210.9927</ARG_OF_PERICENTER><MEAN_ANOMALY>109.3189</MEAN_ANOMALY></meanElements><tleParameters><EPHEMERIS_TYPE>0</EPHEMERIS_TYPE><CLASSIFICATION_TYPE>U</CLASSIFICATION_TYPE><NORAD_CAT_ID>65138</NORAD_CAT_ID><ELEMENT_SET_NO>999</ELEMENT_SET_NO><REV_AT_EPOCH>580</REV_AT_EPOCH><BSTAR>-.11132E+0</BSTAR><MEAN_MOTION_DOT>-.1232128E-1</MEAN_MOTION_DOT><MEAN_MOTION_DDOT>0</MEAN_MOTION_DDOT></tleParameters></data></segment></body></omm>
<omm id="CCSDS_OMM_VERS" version="2.0">
<header><CREATION_DATE/><ORIGINATOR/></header><body><segment><metadata><OBJECT_NAME>KUIPER-00100</OBJECT_NAME><OBJECT_ID>2025-171H</OBJECT_ID><CENTER_NAME>EARTH</CENTER_NAME><REF_FRAME>TEME</REF_FRAME><TIME_SYSTEM>UTC</TIME_SYSTEM><MEAN_ELEMENT_THEORY>SGP4</MEAN_ELEMENT_THEORY></metadata><data><meanElements><EPOCH>2025-12-03T12:00:02.998944</EPOCH><MEAN_MOTION>15.05949543</MEAN_MOTION><ECCENTRICITY>.0002447</ECCENTRICITY><INCLINATION>51.8883</INCLINATION><RA_OF_ASC_NODE>217.6845</RA_OF_ASC_NODE><ARG_OF_PERICENTER>216.6793</ARG_OF_PERICENTER><MEAN_ANOMALY>136.6819</MEAN_ANOMALY></meanElements><tleParameters><EPHEMERIS_TYPE>0</EPHEMERIS_TYPE><CLASSIFICATION_TYPE>U</CLASSIFICATION_TYPE><NORAD_CAT_ID>65139</NORAD_CAT_ID><ELEMENT_SET_NO>999</ELEMENT_SET_NO><REV_AT_EPOCH>541</REV_AT_EPOCH><BSTAR>-.74023E-1</BSTAR><MEAN_MOTION_DOT>-.1012884E-1</MEAN_MOTION_DOT><MEAN_MOTION_DDOT>0</MEAN_MOTION_DDOT></tleParameters></data></segment></body></omm>
<omm id="CCSDS_OMM_VERS" version="2.0">
<header><CREATION_DATE/><ORIGINATOR/></header><body><segment><metadata><OBJECT_NAME>KUIPER-00102</OBJECT_NAME><OBJECT_ID>2025-171J</OBJECT_ID><CENTER_NAME>EARTH</CENTER_NAME><REF_FRAME>TEME</REF_FRAME><TIME_SYSTEM>UTC</TIME_SYSTEM><MEAN_ELEMENT_THEORY>SGP4</MEAN_ELEMENT_THEORY></metadata><data><meanElements><EPOCH>2025-12-03T12:00:02.998944</EPOCH><MEAN_MOTION>14.97350695</MEAN_MOTION><ECCENTRICITY>.0012242</ECCENTRICITY><INCLINATION>51.8936</INCLINATION><RA_OF_ASC_NODE>219.1156</RA_OF_ASC_NODE><ARG_OF_PERICENTER>180.8065</ARG_OF_PERICENTER><MEAN_ANOMALY>93.0069</MEAN_ANOMALY></meanElements><tleParameters><EPHEMERIS_TYPE>0</EPHEMERIS_TYPE><CLASSIFICATION_TYPE>U</CLASSIFICATION_TYPE><NORAD_CAT_ID>65140</NORAD_CAT_ID><ELEMENT_SET_NO>999</ELEMENT_SET_NO><REV_AT_EPOCH>489</REV_AT_EPOCH><BSTAR>-.13903E+0</BSTAR><MEAN_MOTION_DOT>-.150947E-1</MEAN_MOTION_DOT><MEAN_MOTION_DDOT>0</MEAN_MOTION_DDOT></tleParameters></data></segment></body></omm>
<omm id="CCSDS_OMM_VERS" version="2.0">
<header><CREATION_DATE/><ORIGINATOR/></header><body><segment><metadata><OBJECT_NAME>KUIPER-00103</OBJECT_NAME><OBJECT_ID>2025-171K</OBJECT_ID><CENTER_NAME>EARTH</CENTER_NAME><REF_FRAME>TEME</REF_FRAME><TIME_SYSTEM>UTC</TIME_SYSTEM><MEAN_ELEMENT_THEORY>SGP4</MEAN_ELEMENT_THEORY></metadata><data><meanElements><EPOCH>2025-12-03T03:07:05.940768</EPOCH><MEAN_MOTION>14.79970307</MEAN_MOTION><ECCENTRICITY>.00063433</ECCENTRICITY><INCLINATION>51.8992</INCLINATION><RA_OF_ASC_NODE>237.5668</RA_OF_ASC_NODE><ARG_OF_PERICENTER>167.7991</ARG_OF_PERICENTER><MEAN_ANOMALY>192.3126</MEAN_ANOMALY></meanElements><tleParameters><EPHEMERIS_TYPE>0</EPHEMERIS_TYPE><CLASSIFICATION_TYPE>U</CLASSIFICATION_TYPE><NORAD_CAT_ID>65141</NORAD_CAT_ID><ELEMENT_SET_NO>999</ELEMENT_SET_NO><REV_AT_EPOCH>1841</REV_AT_EPOCH><BSTAR>.99948284E-3</BSTAR><MEAN_MOTION_DOT>.7414E-4</MEAN_MOTION_DOT><MEAN_MOTION_DDOT>0</MEAN_MOTION_DDOT></tleParameters></data></segment></body></omm>

</ndm>
